ONEWEB-0018             
1 45434U 20020L   25298.30015475 -.00000157  00000+0 -47986-3 0  9996
2 45434  87.8838  67.8369 0001612 102.8387 257.2922 13.11415059271843
ONEWEB-0083             
1 45435U 20020M   25298.29083437  .00000242  00000+0  64572-3 0  9991
2 45435  87.8838  67.8283 0001620  99.7853 260.3458 13.11415058271882
ONEWEB-0095             
1 45436U 20020N   25298.12904923  .00000528  00000+0  14529-2 0  9999
2 45436  87.8827  67.8755 0001828  73.4482 286.6847 13.11416861271866
ONEWEB-0092             
1 45437U 20020P   25297.87203705 -.00000095  00000+0 -30328-3 0  9998
2 45437  87.8841  67.9222 0001553  88.8019 271.3287 13.11419027271949
ONEWEB-0085             
1 45438U 20020Q   25298.28998829  .00000467  00000+0  12831-2 0  9992
2 45438  87.8829  67.8504 0001575  96.8306 263.3001 13.11416066271888
ONEWEB-0096             
1 45439U 20020R   25298.29166999  .00000235  00000+0  62725-3 0  9990
2 45439  87.8842  67.8253 0001475 104.7083 255.4209 13.11416060271870
ONEWEB-0037             
1 45440U 20020S   25298.11958769  .00000569  00000+0  15690-2 0  9995
2 45440  87.8853  67.8259 0001587  93.9919 266.1390 13.11415856271884
ONEWEB-0042             
1 45441U 20020T   25298.12877208  .00000513  00000+0  14129-2 0  9990
2 45441  87.8838  67.8593 0001467  95.8617 264.2678 13.11417120271853
